start=new Date('2021-10-07T00:00:00.000Z').valueOf();
sats=[{"CLASSIFICATION_TYPE":"U","BSTAR":"-0.00069453000000","ELEMENT_SET_NO":"999","SEMIMAJOR_AXIS":"6737.626","INCLINATION":"70.0024","EPOCH":"2021-10-06T22:00:00.999936","RA_OF_ASC_NODE":"62.8177","APOAPSIS":"362.049","CENTER_NAME":"EARTH","GP_ID":"186426484","MEAN_MOTION_DDOT":"0.0000000000000","OBJECT_NAME":"STARLINK-3058","EPHEMERIS_TYPE":"0","COUNTRY_CODE":"US","LAUNCH_DATE":"2021-09-14","TLE_LINE1":"1 49138U 21082J   21279.91667824 -.00082471  00000-0 -69453-3 0  9996","RCS_SIZE":"LARGE","FILE":"3148521","REV_AT_EPOCH":"374","MEAN_ANOMALY":"316.9731","MEAN_ELEMENT_THEORY":"SGP4","REF_FRAME":"TEME","NORAD_CAT_ID":"49138","OBJECT_ID":"2021-082J","ARG_OF_PERICENTER":"282.9672","MEAN_MOTION_DOT":"-0.00082471","PERIAPSIS":"356.934","MEAN_MOTION":"15.69793028","TLE_LINE2":"2 49138  70.0024  62.8177 0003796 282.9672 316.9731 15.69793028  3746","PERIOD":"91.732","OBJECT_TYPE":"PAYLOAD","SITE":"AFWTR","ECCENTRICITY":"0.00037960","TIME_SYSTEM":"UTC","DECAY_DATE":null},{"RCS_SIZE":"LARGE","TLE_LINE1":"1 49139U 21082K   21279.91667824  .00021373  00000-0  18043-3 0  9998","LAUNCH_DATE":"2021-09-14","MEAN_MOTION_DOT":"0.00021373","ARG_OF_PERICENTER":"283.7441","OBJECT_ID":"2021-082K","NORAD_CAT_ID":"49139","REF_FRAME":"TEME","MEAN_ANOMALY":"314.0942","MEAN_ELEMENT_THEORY":"SGP4","REV_AT_EPOCH":"374","FILE":"3148521","OBJECT_TYPE":"PAYLOAD","SITE":"AFWTR","PERIOD":"91.735","TLE_LINE2":"2 49139  70.0011  62.8190 0003753 283.7441 314.0942 15.69737693  3743","MEAN_MOTION":"15.69737693","PERIAPSIS":"357.121","DECAY_DATE":null,"ECCENTRICITY":"0.00037530","TIME_SYSTEM":"UTC","CLASSIFICATION_TYPE":"U","BSTAR":"0.00018043000000","EPOCH":"2021-10-06T22:00:00.999936","RA_OF_ASC_NODE":"62.8190","INCLINATION":"70.0011","SEMIMAJOR_AXIS":"6737.785","ELEMENT_SET_NO":"999","GP_ID":"186426899","CENTER_NAME":"EARTH","APOAPSIS":"362.178","COUNTRY_CODE":"US","OBJECT_NAME":"STARLINK-3057","EPHEMERIS_TYPE":"0","MEAN_MOTION_DDOT":"0.0000000000000"},{"COUNTRY_CODE":"US","MEAN_MOTION_DDOT":"0.0000000000000","OBJECT_NAME":"STARLINK-3118","EPHEMERIS_TYPE":"0","APOAPSIS":"362.149","CENTER_NAME":"EARTH","GP_ID":"186426257","INCLINATION":"69.9996","SEMIMAJOR_AXIS":"6737.758","EPOCH":"2021-10-06T22:00:00.999936","RA_OF_ASC_NODE":"62.8050","ELEMENT_SET_NO":"999","CLASSIFICATION_TYPE":"U","BSTAR":"0.00000628650000","DECAY_DATE":null,"ECCENTRICITY":"0.00037500","TIME_SYSTEM":"UTC","MEAN_MOTION":"15.69747051","TLE_LINE2":"2 49140  69.9996  62.8050 0003750 274.7558 329.2259 15.69747051  3934","PERIOD":"91.735","SITE":"AFWTR","OBJECT_TYPE":"PAYLOAD","PERIAPSIS":"357.096","NORAD_CAT_ID":"49140","REF_FRAME":"TEME","OBJECT_ID":"2021-082L","ARG_OF_PERICENTER":"274.7558","MEAN_MOTION_DOT":"0.00000538","FILE":"3148521","REV_AT_EPOCH":"393","MEAN_ELEMENT_THEORY":"SGP4","MEAN_ANOMALY":"329.2259","LAUNCH_DATE":"2021-09-14","TLE_LINE1":"1 49140U 21082L   21279.91667824  .00000538  00000-0  62865-5 0  9993","RCS_SIZE":"LARGE"},{"CENTER_NAME":"EARTH","GP_ID":"186426699","APOAPSIS":"361.962","OBJECT_NAME":"STARLINK-3093","EPHEMERIS_TYPE":"0","MEAN_MOTION_DDOT":"0.0000000000000","COUNTRY_CODE":"US","BSTAR":"0.00016197000000","CLASSIFICATION_TYPE":"U","ELEMENT_SET_NO":"999","EPOCH":"2021-10-06T22:00:00.999936","RA_OF_ASC_NODE":"62.8141","SEMIMAJOR_AXIS":"6737.788","INCLINATION":"70.0004","PERIAPSIS":"357.344","OBJECT_TYPE":"PAYLOAD","SITE":"AFWTR","PERIOD":"91.735","TLE_LINE2":"2 49141  70.0004  62.8141 0003427 279.5922 322.5126 15.69736417  3740","MEAN_MOTION":"15.69736417","TIME_SYSTEM":"UTC","ECCENTRICITY":"0.00034270","DECAY_DATE":null,"RCS_SIZE":"LARGE","TLE_LINE1":"1 49141U 21082M   21279.91667824  .00019157  00000-0  16197-3 0  9996","LAUNCH_DATE":"2021-09-14","MEAN_ELEMENT_THEORY":"SGP4","MEAN_ANOMALY":"322.5126","REV_AT_EPOCH":"374","FILE":"3148521","MEAN_MOTION_DOT":"0.00019157","ARG_OF_PERICENTER":"279.5922","OBJECT_ID":"2021-082M","NORAD_CAT_ID":"49141","REF_FRAME":"TEME"},{"REV_AT_EPOCH":"373","MEAN_ANOMALY":"320.5341","MEAN_ELEMENT_THEORY":"SGP4","FILE":"3148521","MEAN_MOTION_DOT":"0.00020531","ARG_OF_PERICENTER":"285.7949","NORAD_CAT_ID":"49142","REF_FRAME":"TEME","OBJECT_ID":"2021-082N","RCS_SIZE":"LARGE","LAUNCH_DATE":"2021-09-14","TLE_LINE1":"1 49142U 21082N   21279.91667824  .00020531  00000-0  17349-3 0  9995","TIME_SYSTEM":"UTC","ECCENTRICITY":"0.00034100","DECAY_DATE":null,"PERIAPSIS":"357.380","PERIOD":"91.736","SITE":"AFWTR","OBJECT_TYPE":"PAYLOAD","TLE_LINE2":"2 49142  70.0026  62.8104 0003410 285.7949 320.5341 15.69727858  3739","MEAN_MOTION":"15.69727858","ELEMENT_SET_NO":"999","EPOCH":"2021-10-06T22:00:00.999936","RA_OF_ASC_NODE":"62.8104","SEMIMAJOR_AXIS":"6737.813","INCLINATION":"70.0026","CLASSIFICATION_TYPE":"U","BSTAR":"0.00017349000000","MEAN_MOTION_DDOT":"0.0000000000000","OBJECT_NAME":"STARLINK-3042","EPHEMERIS_TYPE":"0","COUNTRY_CODE":"US","APOAPSIS":"361.975","GP_ID":"186426151","CENTER_NAME":"EARTH"},{"GP_ID":"186426808","CENTER_NAME":"EARTH","APOAPSIS":"362.121","EPHEMERIS_TYPE":"0","OBJECT_NAME":"STARLINK-3109","MEAN_MOTION_DDOT":"0.0000000000000","COUNTRY_CODE":"US","CLASSIFICATION_TYPE":"U","BSTAR":"0.00000251350000","ELEMENT_SET_NO":"999","RA_OF_ASC_NODE":"62.8000","EPOCH":"2021-10-06T22:00:00.999936","INCLINATION":"69.9997","SEMIMAJOR_AXIS":"6737.757","PERIAPSIS":"357.124","OBJECT_TYPE":"PAYLOAD","SITE":"AFWTR","PERIOD":"91.735","MEAN_MOTION":"15.69747256","TLE_LINE2":"2 49143  69.9997  62.8000 0003708 282.6796 325.5552 15.69747256  3930","TIME_SYSTEM":"UTC","ECCENTRICITY":"0.00037080","DECAY_DATE":null,"RCS_SIZE":"LARGE","TLE_LINE1":"1 49143U 21082P   21279.91667824  .00000088  00000-0  25135-5 0  9995","LAUNCH_DATE":"2021-09-14","MEAN_ANOMALY":"325.5552","MEAN_ELEMENT_THEORY":"SGP4","REV_AT_EPOCH":"393","FILE":"3148521","ARG_OF_PERICENTER":"282.6796","MEAN_MOTION_DOT":"0.00000088","OBJECT_ID":"2021-082P","NORAD_CAT_ID":"49143","REF_FRAME":"TEME"},{"LAUNCH_DATE":"2021-09-14","TLE_LINE1":"1 49144U 21082Q   21279.91667824  .00021791  00000-0  18374-3 0  9995","RCS_SIZE":"LARGE","FILE":"3148521","REV_AT_EPOCH":"373","MEAN_ANOMALY":"330.7529","MEAN_ELEMENT_THEORY":"SGP4","NORAD_CAT_ID":"49144","REF_FRAME":"TEME","OBJECT_ID":"2021-082Q","MEAN_MOTION_DOT":"0.00021791","ARG_OF_PERICENTER":"281.9427","PERIAPSIS":"356.892","MEAN_MOTION":"15.69760076","TLE_LINE2":"2 49144  70.0008  62.8026 0003997 281.9427 330.7529 15.69760076  3733","PERIOD":"91.734","SITE":"AFWTR","OBJECT_TYPE":"PAYLOAD","ECCENTRICITY":"0.00039970","TIME_SYSTEM":"UTC","DECAY_DATE":null,"CLASSIFICATION_TYPE":"U","BSTAR":"0.00018374000000","ELEMENT_SET_NO":"999","SEMIMAJOR_AXIS":"6737.720","INCLINATION":"70.0008","EPOCH":"2021-10-06T22:00:00.999936","RA_OF_ASC_NODE":"62.8026","APOAPSIS":"362.279","CENTER_NAME":"EARTH","GP_ID":"186426592","MEAN_MOTION_DDOT":"0.0000000000000","EPHEMERIS_TYPE":"0","OBJECT_NAME":"STARLINK-3100","COUNTRY_CODE":"US"},{"CLASSIFICATION_TYPE":"U","BSTAR":"0.00000338140000","EPOCH":"2021-10-06T22:00:00.999936","RA_OF_ASC_NODE":"62.7901","INCLINATION":"69.9997","SEMIMAJOR_AXIS":"6737.757","ELEMENT_SET_NO":"999","GP_ID":"186426365","CENTER_NAME":"EARTH","APOAPSIS":"361.980","COUNTRY_CODE":"US","OBJECT_NAME":"STARLINK-3119","EPHEMERIS_TYPE":"0","MEAN_MOTION_DDOT":"0.0000000000000","RCS_SIZE":"LARGE","TLE_LINE1":"1 49145U 21082R   21279.91667824  .00000191  00000-0  33814-5 0  9995","LAUNCH_DATE":"2021-09-14","MEAN_MOTION_DOT":"0.00000191","ARG_OF_PERICENTER":"273.6889","OBJECT_ID":"2021-082R","NORAD_CAT_ID":"49145","REF_FRAME":"TEME","MEAN_ANOMALY":"343.0522","MEAN_ELEMENT_THEORY":"SGP4","REV_AT_EPOCH":"394","FILE":"3148521","SITE":"AFWTR","OBJECT_TYPE":"PAYLOAD","PERIOD":"91.735","MEAN_MOTION":"15.69747259","TLE_LINE2":"2 49145  69.9997  62.7901 0003500 273.6889 343.0522 15.69747259  3940","PERIAPSIS":"357.264","DECAY_DATE":null,"ECCENTRICITY":"0.00035000","TIME_SYSTEM":"UTC"},{"INCLINATION":"70.0002","SEMIMAJOR_AXIS":"6738.822","EPOCH":"2021-10-06T22:00:00.999936","RA_OF_ASC_NODE":"62.7944","ELEMENT_SET_NO":"999","BSTAR":"0.00382600000000","CLASSIFICATION_TYPE":"U","COUNTRY_CODE":"US","MEAN_MOTION_DDOT":"0.0000000000000","OBJECT_NAME":"STARLINK-3116","EPHEMERIS_TYPE":"0","APOAPSIS":"363.102","GP_ID":"186426485","CENTER_NAME":"EARTH","NORAD_CAT_ID":"49146","REF_FRAME":"TEME","OBJECT_ID":"2021-082S","ARG_OF_PERICENTER":"279.9194","MEAN_MOTION_DOT":"0.00476078","FILE":"3148521","REV_AT_EPOCH":"390","MEAN_ANOMALY":"334.9601","MEAN_ELEMENT_THEORY":"SGP4","LAUNCH_DATE":"2021-09-14","TLE_LINE1":"1 49146U 21082S   21279.91667824  .00476078  00000-0  38260-2 0  9994","RCS_SIZE":"LARGE","DECAY_DATE":null,"TIME_SYSTEM":"UTC","ECCENTRICITY":"0.00035850","MEAN_MOTION":"15.69375329","TLE_LINE2":"2 49146  70.0002  62.7944 0003585 279.9194 334.9601 15.69375329  3907","PERIOD":"91.756","SITE":"AFWTR","OBJECT_TYPE":"PAYLOAD","PERIAPSIS":"358.271"},{"MEAN_MOTION_DDOT":"0.0000000000000","EPHEMERIS_TYPE":"0","OBJECT_NAME":"STARLINK-3071","COUNTRY_CODE":"US","APOAPSIS":"361.855","GP_ID":"186426900","CENTER_NAME":"EARTH","ELEMENT_SET_NO":"999","EPOCH":"2021-10-06T22:00:00.999936","RA_OF_ASC_NODE":"62.8062","INCLINATION":"70.0009","SEMIMAJOR_AXIS":"6737.549","BSTAR":"-0.00064262000000","CLASSIFICATION_TYPE":"U","TIME_SYSTEM":"UTC","ECCENTRICITY":"0.00036230","DECAY_DATE":null,"PERIAPSIS":"356.972","PERIOD":"91.730","OBJECT_TYPE":"PAYLOAD","SITE":"AFWTR","MEAN_MOTION":"15.69820170","TLE_LINE2":"2 49147  70.0009  62.8062 0003623 282.9351 327.6785 15.69820170  3731","REV_AT_EPOCH":"373","MEAN_ELEMENT_THEORY":"SGP4","MEAN_ANOMALY":"327.6785","FILE":"3148521","ARG_OF_PERICENTER":"282.9351","MEAN_MOTION_DOT":"-0.00076459","NORAD_CAT_ID":"49147","REF_FRAME":"TEME","OBJECT_ID":"2021-082T","RCS_SIZE":"LARGE","LAUNCH_DATE":"2021-09-14","TLE_LINE1":"1 49147U 21082T   21279.91667824 -.00076459  00000-0 -64262-3 0  9998"}];
